STARLINK-2291           
1 47862U 21021C   26068.73228072  .00000154  00000+0  17320-4 0  9992
2 47862  53.1588 255.0616 0000991 118.3853 241.7248 15.30185290276436
TRANSPORTER-10 OBJECT AG
1 59128U 24043AG  26068.92552531  .00009498  00000+0  32170-3 0  9997
2 59128  97.5471 205.7101 0009300 226.5958 133.4509 15.30759727111920
